CCSDS_OEM_VERS = 2.0
CREATION_DATE  = 2025-10-29T14:13:09.240
ORIGINATOR     = NASA/JSC/FOD/TOPO

META_START
OBJECT_NAME          = ISS
OBJECT_ID            = 1998-067-A
CENTER_NAME          = Earth
REF_FRAME            = EME2000
TIME_SYSTEM          = UTC
START_TIME           = 2025-10-29T12:00:00.000
USEABLE_START_TIME   = 2025-10-29T12:00:00.000
USEABLE_STOP_TIME    = 2025-11-13T12:00:00.000
STOP_TIME            = 2025-11-13T12:00:00.000
META_STOP

COMMENT Source: This file was produced by the TOPO office within FOD at JSC.
COMMENT Units are in kg and m^2
COMMENT MASS=480454.10
COMMENT DRAG_AREA=1514.10
COMMENT DRAG_COEFF=1.30
COMMENT SOLAR_RAD_AREA=0.00
COMMENT SOLAR_RAD_COEFF=0.00
COMMENT Orbits start at the ascending node epoch
COMMENT ISS first asc. node: EPOCH = 2025-10-29T13:17:47.871 $ ORBIT = 1600 $ LAN(DEG) = 123.65756
COMMENT ISS last asc. node : EPOCH = 2025-11-13T10:50:41.980 $ ORBIT = 1831 $ LAN(DEG) = 71.98424
COMMENT Begin sequence of events
COMMENT TRAJECTORY EVENT SUMMARY:
COMMENT 
COMMENT |       EVENT        |       TIG        | ORB |   DV    |   HA    |   HP    |
COMMENT |                    |       GMT        |     |   M/S   |   KM    |   KM    |
COMMENT |                    |                  |     |  (F/S)  |  (NM)   |  (NM)   |
COMMENT =============================================================================
COMMENT  HTV-X1_Capture        302:15:50:00.000             0.0     424.3     411.1
COMMENT                                                    (0.0)   (229.1)   (222.0)
COMMENT 
COMMENT  GMT 311 Settling      311:17:58:00.000             0.1     425.3     408.9
COMMENT                                                    (0.3)   (229.6)   (220.8)
COMMENT 
COMMENT  GMT 311 SpX-33 Reboo  311:18:01:00.000             0.8     425.3     409.3
COMMENT                                                    (2.6)   (229.7)   (221.0)
COMMENT 
COMMENT =============================================================================
COMMENT End sequence of events
2025-11-07T04:59:00.000 4438.763136698420 1318.045337770090 4961.612911721700 -4.19548891235501 6.04763273204750 2.14488040997061
2025-11-07T05:03:00.000 3282.492234176070 2703.834211444650 5288.949803087490 -5.38109683935644 5.43008935840995 0.56636011404021
2025-11-07T05:07:00.000 1887.279667346010 3892.821043516180 5230.207498557590 -6.17461576437771 4.41764979387009 -1.05280179794609
2025-11-07T05:11:00.000 354.714667565995 4798.536565469610 4789.784236776390 -6.51874247865570 3.08387529466781 -2.59490320077811
2025-11-07T05:15:00.000 -1203.673416628280 5355.076704878330 3999.833589894660 -6.38848157833196 1.52560172191442 -3.94770784585809
2025-11-07T05:19:00.000 -2674.470148107140 5521.912625637000 2917.982139080800 -5.79327496161653 -0.14380665997910 -5.01249537937601
2025-11-07T05:23:00.000 -3950.639087822360 5286.899500419820 1623.177321083180 -4.77653902079597 -1.80261262749665 -5.71141961241860
2025-11-07T05:27:00.000 -4939.377106121750 4667.227372369610 209.935752662403 -3.41277062213100 -3.32963468626769 -5.99344429489175
2025-11-07T05:31:00.000 -5568.967080838350 3708.184314994930 -1218.624885657860 -1.80207626132724 -4.61341187743199 -5.83842186193670
2025-11-07T05:35:00.000 -5794.035303502200 2479.770377178840 -2558.435523253970 -0.06244861171900 -5.56077961742159 -5.25856363433892
2025-11-07T05:39:00.000 -5598.771845642910 1071.443504604570 -3712.141248225000 1.67933409700557 -6.10373255074257 -4.29720042220372
2025-11-07T05:43:00.000 -4997.887491631240 -414.527113675420 -4596.171233518190 3.29728838288656 -6.20407404378853 -3.02505904136360
2025-11-07T05:47:00.000 -4035.323732697300 -1870.515506846830 -5146.668795826260 4.67521412873060 -5.85553032421886 -1.53465407708615
2025-11-07T05:51:00.000 -2780.934508753010 -3191.236406800070 -5323.922396207720 5.71457590155894 -5.08367262729989 0.06653014378344
2025-11-07T05:55:00.000 -1325.445968459940 -4281.167479999070 -5115.075342966010 6.34092546529179 -3.94380036426134 1.66345698989426
2025-11-07T05:59:00.000 225.944372347800 -5061.263967926610 -4535.013463629580 6.50878687330904 -2.51716620708037 3.14126489327178
2025-11-07T06:03:00.000 1760.938994535190 -5474.586086052360 -3625.398456968980 6.20486692725790 -0.90573960738878 4.39295469193095
2025-11-07T06:07:00.000 3168.080495220850 -5490.505708657430 -2451.881479265340 5.44956193140882 0.77439695726299 5.32681799052270
2025-11-07T06:11:00.000 4344.816214608550 -5107.163936952270 -1099.580411909000 4.29635770652926 2.40101765218048 5.87344165787528
2025-11-07T06:15:00.000 5205.104467115900 -4351.883386688430 333.001901461488 2.82860747693142 3.85473230950300 5.99152777946499
2025-11-07T06:19:00.000 5685.920579381560 -3279.351323703790 1741.219377025410 1.15354851205883 5.02840434854672 5.67155001830970
2025-11-07T06:23:00.000 5752.042900652460 -1967.648598572490 3022.073816120870 -0.60586105443857 5.83550541190218 4.93671279879137
2025-11-07T06:27:00.000 5398.702562174180 -512.453899882131 4081.916168286250 -2.32046572728133 6.21686206829172 3.84120044339359
2025-11-07T06:31:00.000 4651.864714287490 980.098815125903 4843.398877101210 -3.86494245165587 6.14500967197589 2.46572261970847
2025-11-07T06:35:00.000 3566.179833912560 2401.272049348960 5251.094694155750 -5.12699996202790 5.62575900294900 0.91106382257780
2025-11-07T06:39:00.000 2220.881537684370 3647.648299475590 5275.437678680970 -6.01526817812387 4.69731321774848 -0.70934369278613
2025-11-07T06:43:00.000 713.965132153110 4628.591141205920 4914.792507979880 -6.46566522635126 3.42729528785759 -2.27759772421731
2025-11-07T06:47:00.000 -844.911281303052 5272.746974843660 4195.519425970190 -6.44562482813447 1.90785550141910 -3.67964490702532
2025-11-07T06:51:00.000 -2342.317866650000 5533.213413086900 3170.086436281100 -5.95652232578818 0.24941536771713 -4.81329126811683
2025-11-07T06:55:00.000 -3669.279967964910 5391.014639291530 1913.311147061210 -5.03396620842010 -1.42712600400410 -5.59566085901383
2025-11-07T06:59:00.000 -4729.276208005640 4856.561609605450 516.927127419180 -3.74550324764793 -2.99931515661093 -5.96957630423445
2025-11-07T07:03:00.000 -5445.360519609470 3968.920711863510 -917.163480999938 -2.18569446002193 -4.35234095320120 -5.90805380442669
2025-11-07T07:07:00.000 -5765.822159197710 2792.904678163480 -2284.443297234540 -0.46890630197466 -5.38783804331223 -5.41640311191454
2025-11-07T07:11:00.000 -5667.894775813900 1414.202211029810 -3485.503098965190 1.27959200831163 -6.03126264253879 -4.53153404862621
2025-11-07T07:15:00.000 -5159.238023088400 -67.005547319111 -4433.283479271110 2.93310588642039 -6.23705623988904 -3.31873862121074
2025-11-07T07:19:00.000 -4277.156797755770 -1543.383851919830 -5059.290537907110 4.37274350831143 -5.99141327863887 -1.86640553527585
2025-11-07T07:23:00.000 -3085.733627881810 -2908.149541599100 -5318.359969425690 5.49548906260524 -5.31261556428586 -0.27940258922789
2025-11-07T07:27:00.000 -1671.176424416410 -4062.612855256200 -5191.749783539620 6.22098680440660 -4.24939633832026 1.32821989857881
2025-11-07T07:31:00.000 -135.721905078086 -4923.111252580280 -4688.428941213790 6.49676944678910 -2.87756510624420 2.84086881277655
2025-11-07T07:35:00.000 1409.535955713290 -5426.952181716740 -3844.516102660310 6.30196172874587 -1.29511502523458 4.14919084278844
2025-11-07T07:39:00.000 2852.488660935350 -5536.995340034780 -2720.860763999640 5.64913431902675 0.38420043839823 5.15766749368564
2025-11-07T07:43:00.000 4088.064107714870 -5244.536421399050 -1398.871271066120 4.58414300297579 2.03852706332480 5.79160375790121
2025-11-07T07:47:00.000 5025.967529876260 -4570.226396025130 25.240457939507 3.18364406917469 3.54663991565227 6.00323252332860
2025-11-07T07:51:00.000 5597.500749859010 -3562.789192111770 1447.485779321970 1.54983315328312 4.79739001354691 5.77603189384355
2025-11-07T07:55:00.000 5760.791882068120 -2295.517327127880 2763.848710008350 -0.19738778708463 5.69854139198353 5.12630615459944
2025-11-07T07:59:00.000 5503.949293115810 -860.831991200600 3878.065889707000 -1.92972856796875 6.18394959129688 4.10192177170041
2025-11-07T08:03:00.000 4845.882140256670 636.614998150488 4708.781113508180 -3.52044264449731 6.21843077763027 2.77838558157932
2025-11-07T08:07:00.000 3834.782253605640 2087.693777917700 5195.490421481820 -4.85373533054087 5.80000810891967 1.25282290426328
2025-11-07T08:11:00.000 2544.480134260350 3386.782719065960 5302.869531370410 -5.83300999114192 4.95964953033247 -0.36336812537170
2025-11-07T08:15:00.000 1069.000494596400 4439.405426168760 5023.236779270350 -6.38753025853329 3.75865847634825 -1.95258548203848
2025-11-07T08:19:00.000 -484.261488137003 5169.011909120250 4377.062159557400 -6.47726285200762 2.28424659819723 -3.39922705451580
2025-11-07T08:23:00.000 -2002.288563687620 5522.503400525460 3411.493653582730 -6.09568800180377 0.64349972237137 -4.59789965839171
2025-11-07T08:27:00.000 -3374.619963403860 5474.134257181690 2196.977308128180 -5.27056398931919 -1.04409107979091 -5.46105769731674
2025-11-07T08:31:00.000 -4501.425751440370 5027.463624053030 822.154434913384 -4.06222657482345 -2.65531760838951 -5.92560198893731
2025-11-07T08:35:00.000 -5300.864377898150 4215.144956164490 -612.640887360403 -2.55931280275967 -4.07248944069804 -5.95783930531869
2025-11-07T08:39:00.000 -5715.115268597110 3096.508960416540 -2002.805724847030 -0.87207678324591 -5.19241616774393 -5.55612173401010
2025-11-07T08:43:00.000 -5714.568296938800 1753.106236932840 -3247.213050473140 0.87620368219432 -5.93427328815631 -4.75080834439758
2025-11-07T08:47:00.000 -5299.818910236230 282.610515506576 -4255.607882021460 2.55866028949221 -6.24528051606654 -3.60149187548591
2025-11-07T08:51:00.000 -4501.409456471050 -1208.364900908440 -4955.077835070280 4.05411746834718 -6.10407612526705 -2.19213431851238
